{"fetched_at":"2026-03-29T02:12:04Z","count":15717,"tles":[{"name":"STARLINK-31102","line1":"1 58715U 24002L   26087.44180991  .00001555  00000+0  64624-4 0  9994","line2":"2 58715  53.1594 143.0200 0000957  73.8376 286.2730 15.30190930124882","category":"Starlink"}]}