{
  "norad_id": 58715,
  "name": "STARLINK-31102",
  "history": [
    {
      "epoch": "2026-03-28T10:36:12.376224",
      "apogee_km": 475.8980193229572,
      "perigee_km": 474.58628255346775,
      "latitude_deg": 52.24543956100139,
      "longitude_deg": 93.91375136002898,
      "semi_major_axis_km": 6853.379150938213,
      "eccentricity": 9.57e-05,
      "inclination_deg": 53.1594,
      "raan_deg": 143.02,
      "arg_perigee_deg": 73.8376,
      "mean_anomaly_deg": 286.273,
      "mean_motion_rev_day": 15.3019093
    }
  ]
}